[{"OBJECT_NAME":"ORBITER SN3","OBJECT_ID":"2023-084AE","EPOCH":"2026-03-09T23:12:21.976128","MEAN_MOTION":15.32943891,"ECCENTRICITY":0.00075889,"INCLINATION":97.61,"RA_OF_ASC_NODE":206.6768,"ARG_OF_PERICENTER":331.7947,"MEAN_ANOMALY":28.2883,"EPHEMERIS_TYPE":0,"CLASSIFICATION_TYPE":"U","NORAD_CAT_ID":56960,"ELEMENT_SET_NO":999,"REV_AT_EPOCH":15228,"BSTAR":0.00032835432,"MEAN_MOTION_DOT":0.00010378,"MEAN_MOTION_DDOT":0},{"OBJECT_NAME":"STARLINK-31698","OBJECT_ID":"2024-062F","EPOCH":"2026-03-09T19:58:40.732032","MEAN_MOTION":15.30183968,"ECCENTRICITY":0.00012569,"INCLINATION":53.1603,"RA_OF_ASC_NODE":254.9886,"ARG_OF_PERICENTER":88.3549,"MEAN_ANOMALY":271.7596,"EPHEMERIS_TYPE":0,"CLASSIFICATION_TYPE":"U","NORAD_CAT_ID":59379,"ELEMENT_SET_NO":999,"REV_AT_EPOCH":10965,"BSTAR":9.91931e-6,"MEAN_MOTION_DOT":-6.5e-7,"MEAN_MOTION_DDOT":0}]
